      2.10          N: GNSS NAV DATA                        RINEX VERSION / TYPE
fic2rin                                 12/07/2018 00:18:49 PGM / RUN BY / DATE
                                                            END OF HEADER
20 18 12  6 18  0  0.0 5.196188576519e-04 4.547473508865e-13 0.000000000000e+00
    3.500000000000e+01 2.565625000000e+01 5.636306203348e-09 6.076933759540e-02
    1.300126314163e-06 4.490697639994e-03 6.038695573807e-06 5.153661270142e+03
    4.104000000000e+05 0.000000000000e+00 1.077431553817e+00-6.146728992462e-08
    9.291880069016e-01 2.464062500000e+02 2.192493878125e+00-8.556427838136e-09
    5.125213485714e-10 1.000000000000e+00 2.030000000000e+03 0.000000000000e+00
    2.400000000000e+00 0.000000000000e+00-8.381903171539e-09 3.500000000000e+01
    4.032060000000e+05 4.000000000000e+00
22 18 12  6 18  0  0.0-5.921181291342e-04-9.436007530894e-12 0.000000000000e+00
    7.400000000000e+01 2.684375000000e+01 5.753811097899e-09 1.684813000527e+00
    1.313164830208e-06 6.994726252742e-03 5.820766091347e-06 5.153631319046e+03
    4.104000000000e+05 1.061707735062e-07 1.126690998677e+00-1.899898052216e-07
    9.258784092950e-01 2.504687500000e+02-1.453227692355e+00-8.496425338791e-09
    5.132356640398e-10 1.000000000000e+00 2.030000000000e+03 0.000000000000e+00
    2.400000000000e+00 0.000000000000e+00-1.816079020500e-08 7.400000000000e+01
    4.032060000000e+05 4.000000000000e+00
13 18 12  6 18  0  0.0-8.238945156336e-05 1.136868377216e-12 0.000000000000e+00
    1.230000000000e+02-1.531250000000e+01 4.504116185947e-09 1.315452092328e+00
   -8.139759302139e-07 3.671573707834e-03 9.018927812576e-06 5.153666259766e+03
    4.104000000000e+05-8.009374141693e-08 2.361369381496e+00-1.862645149231e-08
    9.680356823889e-01 2.097187500000e+02 1.401688713915e+00-7.864970464732e-09
   -5.757382675241e-10 1.000000000000e+00 2.030000000000e+03 0.000000000000e+00
    3.400000000000e+00 0.000000000000e+00-1.117587089539e-08 1.230000000000e+02
    4.032060000000e+05 4.000000000000e+00
10 18 12  6 18  0  0.0 1.552114263177e-04-5.115907697473e-12 0.000000000000e+00
    1.230000000000e+02 1.856250000000e+01 4.900204113170e-09-1.695012362971e+00
    8.381903171539e-07 4.073662566952e-03 5.709007382393e-06 5.153652738571e+03
    4.104000000000e+05 2.980232238770e-08 1.190114713352e+00-5.029141902924e-08
    9.616007929099e-01 2.691562500000e+02-2.815741756889e+00-8.079979420718e-09
    4.821629411647e-10 1.000000000000e+00 2.030000000000e+03 0.000000000000e+00
    3.400000000000e+00 0.000000000000e+00 1.862645149231e-09 1.230000000000e+02
    4.032060000000e+05 4.000000000000e+00
 9 18 12  6 18  0  0.0 4.858104512095e-04-3.751665644813e-12 0.000000000000e+00
    8.800000000000e+01-3.478125000000e+01 4.996636701403e-09 2.900182135976e+00
   -1.702457666397e-06 1.425332389772e-03 7.664784789085e-06 5.153772790909e+03
    4.104000000000e+05 5.587935447693e-08 2.226755116717e+00-5.029141902924e-08
    9.523221676980e-01 2.262187500000e+02 1.672881481634e+00-8.169268854267e-09
   -5.632377468272e-10 1.000000000000e+00 2.030000000000e+03 0.000000000000e+00
    2.400000000000e+00 0.000000000000e+00 1.396983861923e-09 8.800000000000e+01
    4.032060000000e+05 4.000000000000e+00
28 18 12  6 18  0  0.0 7.574721239507e-04 1.364242052659e-12 0.000000000000e+00
    4.100000000000e+01 6.165625000000e+01 4.066955119291e-09-2.952419659261e+00
    3.211200237274e-06 1.963597850408e-02 7.860362529755e-07 5.153697465897e+03
    4.104000000000e+05 2.570450305939e-07-1.860352464405e+00 1.061707735062e-07
    9.838128310905e-01 3.766250000000e+02-1.491519685725e+00-7.836755003730e-09
    1.421487782100e-10 1.000000000000e+00 2.030000000000e+03 0.000000000000e+00
    2.400000000000e+00 0.000000000000e+00-1.117587089539e-08 4.100000000000e+01
    4.032060000000e+05 4.000000000000e+00
30 18 12  6 18  0  0.0-1.570954918861e-05-5.798028723802e-12 0.000000000000e+00
    1.090000000000e+02 9.903125000000e+01 4.580905098799e-09-3.775937269229e-01
    5.053356289864e-06 3.564984886907e-03 1.013092696667e-05 5.153665248871e+03
    4.104000000000e+05 2.980232238770e-08-2.949230255004e+00 2.421438694000e-08
    9.428699014246e-01 1.754375000000e+02-2.990899488386e+00-8.062835849477e-09
   -1.378628853997e-10 1.000000000000e+00 2.030000000000e+03 0.000000000000e+00
    3.400000000000e+00 0.000000000000e+00 3.725290298462e-09 1.090000000000e+02
    4.032060000000e+05 4.000000000000e+00
18 18 12  6 18  0  0.0 2.691056579351e-06 3.979039320257e-12 0.000000000000e+00
    5.600000000000e+01-5.928125000000e+01 4.490901349782e-09 5.532182126734e-02
   -3.226101398468e-06 1.494006055873e-02 1.124665141106e-05 5.153617187500e+03
    4.104000000000e+05-2.030283212662e-07 9.968042326688e-02 1.005828380585e-07
    9.524078069223e-01 1.639687500000e+02 1.364943381908e+00-8.107837723985e-09
    3.596578383355e-10 1.000000000000e+00 2.030000000000e+03 0.000000000000e+00
    2.400000000000e+00 6.300000000000e+01-6.519258022308e-09 5.600000000000e+01
    4.032060000000e+05 4.000000000000e+00
10 18 12  6 17 59 44.0 1.552104949951e-04-5.115907697473e-12 0.000000000000e+00
    7.000000000000e+00 1.856250000000e+01 4.900204113170e-09-1.697346829126e+00
    8.381903171539e-07 4.073657561094e-03 5.709007382393e-06 5.153652740479e+03
    4.103840000000e+05 2.980232238770e-08 1.190114831848e+00-5.029141902924e-08
    9.616007899841e-01 2.691562500000e+02-2.815741082484e+00-8.079979420718e-09
    4.818057834305e-10 1.000000000000e+00 2.030000000000e+03 0.000000000000e+00
    2.400000000000e+00 0.000000000000e+00 1.862645149231e-09 7.000000000000e+00
    4.047360000000e+05 4.000000000000e+00
13 18 12  6 17 59 44.0-8.239177986979e-05 1.136868377216e-12 0.000000000000e+00
    8.000000000000e+00-1.531250000000e+01 4.503759028213e-09 1.313118533183e+00
   -8.139759302139e-07 3.671574406326e-03 9.018927812576e-06 5.153666263580e+03
    4.103840000000e+05-8.009374141693e-08 2.361369511696e+00-1.862645149231e-08
    9.680357101844e-01 2.097187500000e+02 1.401688503255e+00-7.864970464732e-09
   -5.757382675241e-10 1.000000000000e+00 2.030000000000e+03 0.000000000000e+00
    2.400000000000e+00 0.000000000000e+00-1.117587089539e-08 8.000000000000e+00
    4.056360000000e+05 4.000000000000e+00
 2 18 12  6 17 59 44.0-7.850024849176e-05-1.034550223267e-11 0.000000000000e+00
    3.000000000000e+00-4.678125000000e+01 4.491258507516e-09 6.017646868518e-01
   -2.535060048103e-06 1.852460333612e-02 1.173093914986e-05 5.153611120224e+03
    4.103840000000e+05-2.961605787277e-07 8.592111550791e-02-5.774199962616e-08
    9.530443810953e-01 1.528437500000e+02-1.808577744031e+00-8.181412217230e-09
    2.464388365953e-10 1.000000000000e+00 2.030000000000e+03 0.000000000000e+00
    2.400000000000e+00 0.000000000000e+00-2.048909664154e-08 3.000000000000e+00
    4.088460000000e+05 4.000000000000e+00
 2 18 12  6 19 59 44.0-7.857521995902e-05-1.034550223267e-11 0.000000000000e+00
    4.000000000000e+00-6.865625000000e+01 4.212318317109e-09 1.651826617506e+00
   -3.708526492119e-06 1.852600567508e-02 1.136586070061e-05 5.153617208481e+03
    4.175840000000e+05-1.545995473862e-07 8.586191121324e-02-5.085021257401e-07
    9.530479067279e-01 1.574062500000e+02-1.808422889764e+00-7.822468694363e-09
    3.860875106660e-10 1.000000000000e+00 2.030000000000e+03 0.000000000000e+00
    2.400000000000e+00 0.000000000000e+00-2.048909664154e-08 4.000000000000e+00
    4.104060000000e+05 4.000000000000e+00
13 18 12  6 19 59 44.0-8.238339796662e-05 1.136868377216e-12 0.000000000000e+00
    9.000000000000e+00-1.893750000000e+01 4.466971781590e-09 2.363319180656e+00
   -1.026317477226e-06 3.671834594570e-03 9.045004844666e-06 5.153666027069e+03
    4.175840000000e+05-7.450580596924e-09 2.361313145462e+00-4.284083843231e-08
    9.680318612469e-01 2.095937500000e+02 1.401672828088e+00-7.804253649919e-09
   -5.703809015111e-10 1.000000000000e+00 2.030000000000e+03 0.000000000000e+00
    2.400000000000e+00 0.000000000000e+00-1.117587089539e-08 9.000000000000e+00
    4.104060000000e+05 4.000000000000e+00
10 18 12  6 19 59 44.0 1.551732420921e-04-5.115907697473e-12 0.000000000000e+00
    3.100000000000e+01 1.943750000000e+01 4.904132848246e-09-6.471888461961e-01
    1.056119799614e-06 4.073661984876e-03 5.615875124931e-06 5.153652469635e+03
    4.175840000000e+05 9.499490261078e-08 1.190056837387e+00 3.911554813385e-08
    9.616038211504e-01 2.702500000000e+02-2.815702695514e+00-8.156054018102e-09
    4.239462304908e-10 1.000000000000e+00 2.030000000000e+03 0.000000000000e+00
    2.400000000000e+00 0.000000000000e+00 1.862645149231e-09 3.100000000000e+01
    4.104060000000e+05 4.000000000000e+00
 1 18 12  6 20  0  0.0-1.249378547072e-04-5.684341886081e-12 0.000000000000e+00
    5.300000000000e+01-6.168750000000e+01 3.863018053065e-09 1.318614994362e+00
   -3.200024366379e-06 8.184027043171e-03 1.182034611702e-05 5.153669494629e+03
    4.176000000000e+05-7.078051567078e-08 1.509886088245e-01 1.098960638046e-07
    9.739390410646e-01 1.587812500000e+02 6.946631798983e-01-7.674962550140e-09
    3.382283742837e-10 1.000000000000e+00 2.030000000000e+03 0.000000000000e+00
    2.400000000000e+00 0.000000000000e+00 5.587935447693e-09 5.300000000000e+01
    4.104060000000e+05 4.000000000000e+00
 5 18 12  6 20  0  0.0 2.421438694000e-07 2.273736754432e-13 0.000000000000e+00
    6.800000000000e+01 2.765625000000e+01 5.177358514906e-09-2.059767693455e+00
    1.188367605209e-06 5.580955883488e-03 5.515292286873e-06 5.153579759598e+03
    4.176000000000e+05 7.264316082001e-08 1.168902290021e+00-2.421438694000e-08
    9.484428717554e-01 2.633125000000e+02 7.249454407732e-01-8.269987335310e-09
    5.121641908372e-10 1.000000000000e+00 2.030000000000e+03 0.000000000000e+00
    2.400000000000e+00 0.000000000000e+00-1.117587089539e-08 6.800000000000e+01
    4.104060000000e+05 4.000000000000e+00
